DATASET_EN,NAME_EN,ADDRESS_EN,LATITUDE,LONGITUDE
Restaurant licences,Shikuro Bistro,"G/F, 17 CHIU LUNG STREET, CENTRAL, HONG KONG",22.282598,114.1564993
Restaurant licences,BAAN THAI,"G/F. & C/L., 57 WYNDHAM STREET, CENTRAL, HONG KONG",22.2812768,114.1549201
Restaurant licences,MAJESTY,"WHOLE OF 3RD FLOOR, REGENT CENTRE, 88 QUEEN'S ROAD CENTRAL, CENTRAL, HONG KONG",22.2831406,114.1551291
Restaurant licences,Honky tonks tavern,"LG/F, 75-75A HOLLYWOOD ROAD, CENTRAL, HONG KONG",22.2832795,114.1527016
Restaurant licences,NIRVANA,"G/F, 65 WING LOK STREET, SHEUNG WAN, CENTRAL, HONG KONG",22.2858876,114.1525192
Restaurant licences,TOKIO JOE,"LG/F, 58-62 D'AGUILAR STREET, CENTRAL, HONG KONG",22.2804988,114.155431
Restaurant licences,The LOUNGE,"LOBBY LOUNGE & BAR, PODIUM LV-1, FOUR SEASONS HOTEL, 8 FINANCE STREET, CENTRAL, HONG KONG",22.2862775,114.1571778
Restaurant licences,BASMATI,"1/F., SAN TOI BUILDING, 137-139 CONNAUGHT ROAD CENTRAL, CENTRAL, HONG KONG",22.287155,114.151705
Restaurant licences,Queen Victoria 8,"G/F. & M/F., 5-8 QUEEN VICTORIA STREET, CENTRAL, HONG KONG",22.2837831,114.1558955
Restaurant licences,YE SHANGHAI,"UNIT 332, LEVEL 3, PACIFIC PLACE, 88 QUEENSWAY, CENTRAL, HONG KONG",22.277152,114.1648871
Restaurant licences,Honey Hot,"G/F, 57 PEEL STREET, CENTRAL, HONG KONG",22.2825365,114.1524205
Restaurant licences,OMA,"L/B., HARILELA HOUSE, 79 WYNDHAM STREET, CENTRAL, HONG KONG",22.2819012,114.1546713
Restaurant licences,Zenaji Ramen,"G/F, 269 QUEEN'S ROAD WEST, SAI YING PUN, WESTERN, HONG KONG",22.2869851,114.1431328
Restaurant licences,Golden Restaurant,"1/F, SHUN TAK CENTRE, EAST WING, 200 CONNAUGHT ROAD CENTRAL, SHEUNG WAN, CENTRAL, HONG KONG",22.2879098,114.1517914
Restaurant licences,AL DENTE,"G/F., 16 STAUNTON STREET, CENTRAL, HONG KONG",22.2818357,114.1528923
Restaurant licences,DIVINO,"SHOP 1, UG/F., WINSOME HOUSE, 73 WYNDHAM STREET, CENTRAL, HONG KONG",22.2817408,114.1548588
Restaurant licences,YUNG KEE,"G/F - 4/F, 32-40 WELLINGTON STREET, CENTRAL, HONG KONG",22.2814797,114.1555703
Restaurant licences,CARITAS RESTAURANT,"ROOM 301, 3/F., BLOCK A, CARITAS HOUSE, 2 CAINE ROAD, CENTRAL, HONG KONG",22.2788247,114.1542931
Restaurant licences,simplylife FOODPLACE,"SHOP NO.6, LG/F, CITIBANK PLAZA, 3 GARDEN ROAD, CENTRAL, HONG KONG",22.2786123,114.1609375
Restaurant licences,AMBER,"MAJOR PORTION OF 7/F, THE LANDMARK MANDARIN ORIENTAL, THE LANDMARK, 15 QUEEN'S ROAD CENTRAL, CENTRAL, HONG KONG",22.280518,114.157939
Restaurant licences,DELIFRANCE,"SHOP 176 ON THE FIRST FLOOR, WORLD-WIDE PLAZA, NO. 19 DES VOEUX ROAD CENTRAL, HONG KONG",22.2824934,114.1576903
Restaurant licences,La Parrilla Steakhouse,"1/F., CARFIELD COMMERCIAL BUILDING, 75-77 WYNDHAM STREET, CENTRAL, HONG KONG",22.2818526,114.1547385
Restaurant licences,KATONG LAKSA,"G/F., 8 MERCER STREET, CENTRAL, HONG KONG",22.2854839,114.1520444
Restaurant licences,PAMPAS ARGENTINIAN STEAK HOUSE,"G/F, 36 ELGIN STREET, CENTRAL, HONG KONG",22.2816327,114.1526422
Restaurant licences,CARAT,"G/F. & C/L., 29 D'AGUILAR STREET, CENTRAL, HONG KONG",22.2811105,114.1552929
Restaurant licences,Sheung Hing Chiu Chow Restaurant,"G/F & M/F, SHOP 5 & 6, SUN SHING MANSION, 27-39 QUEEN'S ROAD WEST, WESTERN, HONG KONG",22.2868111,114.1483595
Restaurant licences,KUEN KEE,"SHOP NO. 5, UG/F., 138 QUEEN'S ROAD CENTRAL, CENTRAL, HONG KONG",22.283959,114.1542234
Restaurant licences,Chopsticks Kee,"G/F., KHUAN YING COMMERCIAL BUILDING, 85 WELLINGTON STREET, CENTRAL, HONG KONG",22.2833247,114.154444
Restaurant licences,Yat Lung Heen,"3/F, HARBOUR PLAZA NORTH POINT, 665 KING'S ROAD, NORTH POINT, HONG KONG",22.2915378,114.2086321
Restaurant licences,Thai Pepper,"SHOP NO. G401, G/F, YEN KUNG MANSION, 1 TAI MOU AVENUE, TAIKOO SHING, HONG KONG",22.286819,114.216371
Restaurant licences,Kato,"SHOP 7-9, 1/F, 20-36 WHARF ROAD, NORTH POINT, HONG KONG",22.291583,114.195646
Restaurant licences,Myung Ga Korean Restaurant,"SHOP G402, G/F., YEN KUNG MANSION ANDSHOP G403, G/F & SHOP 1, 1/F.,YUAN KUNG MANSION, TAIKOO SHING, HONG KONG",22.286819,114.216371
Restaurant licences,Yue,"1/F (PTN), CITY GARDEN HOTEL, 9 CITY GARDEN ROAD, NORTH POINT, HONG KONG",22.2902934,114.1941818
Restaurant licences,See See Lok,"SHOP B, LG/F, SIU NIN BLDG, 30-32 TSAT TSZ MUI ROAD, HONG KONG",22.2906572,114.2015271
Restaurant licences,LiLium,"SHOP NO. 3 & 4, G/F, HOI KWONG COURT, 13-15 HOI KWONG STREET, QUARRY BAY, HONG KONG",22.2876453,114.21103
Restaurant licences,West Willa Restaurant,"UNIT 208, CITYPLAZA , 18 TAIKOO SHING ROAD, ISLAND EAST, HONG KONG",22.286721,114.217477
Restaurant licences,Ichikawa,"SHOP 262, 2/F, CITYPLAZA 2, TAIKOO SHING, HONG KONG",22.286721,114.217477
Restaurant licences,Northern Dumpling Yuan,"SHOP A, G/F & C/L, 42-52 SHAU KEI WAN MAIN STREET EAST, HONG KONG",22.27976,114.2300766
Restaurant licences,Forbidden Duck,"2/F, BERKSHIRE HOUSE, TAIKOO PLACE, 25 WESTLANDS ROAD, QUARRY BAY, HONG KONG",22.287652,114.21327
Restaurant licences,HOI WON TEEN,"PORTION OF 2/F, 20 TAK FUNG ST, HUNG HOM, KOWLOON CITY, KOWLOON",22.302697,114.1923311
Restaurant licences,SKY LIGHT COMPANY,"1/F, 67C WATERLOO ROAD, HOMANTIN, KOWLOON CITY, KOWLOON",22.3181523,114.1748878
Restaurant licences,Mei King Restaurant,"G/F, 41 MEI KING STREET, TOKWAWAN, KOWLOON CITY, KOWLOON",22.3168715,114.1908132
Restaurant licences,HUNG HING DUMPLING,"G/F, NO.7 ANHUI ST., TOKWAWAN, KOWLOON CITY, KOWLOON",22.314846,114.187271
Restaurant licences,THAI UDON TASTE,"G/F, NGA TSIN WAI BLDG, 36A NGA TSIN WAI RD, KOWLOON CITY, KOWLOON",22.3289683,114.1916814
Restaurant licences,GOLD ORCHID THAI RESTAURANT,"G/F, 10 LUNG KONG RD, KOWLOON CITY, KOWLOON",22.3282418,114.1905344
Restaurant licences,INDIAN CURRY KING,"SHOP C, G/F, 24-28 SOUTH WALL ROAD, KOWLOON CITY, KOWLOON",22.3292,114.191128
Restaurant licences,CAMBO PHO,"G/F, 27 NGA TSIN LONG RD, KOWLOON CITY, KOWLOON",22.328685,114.189157
Restaurant licences,HAPPY TOGETHER HOTPOT,"G/F, 70-72 TAK KU LING RD, KOWLOON CITY, KOWLOON",22.3300677,114.191708
Restaurant licences,Golden Thai Food,"SHOP C1, G/F, WHAMPOA ESTATE III, 43 MAN TAI ST, HUNGHOM, KOWLOON CITY, KOWLOON",22.3065889,114.1885115
Restaurant licences,Silver Star Restaurant,"G/F, 3 SHEUNG HEUNG ROAD, TOKWAWAN, KOWLOON CITY, KOWLOON",22.3191013,114.187836
Restaurant licences,Crab Fairy (Kowloon City Branch),"G/F, 4 LUNG KONG ROAD, KOWLOON CITY, KOWLOON",22.328379,114.190549
Restaurant licences,Shung Hing Restaurant,"G/F, 56-58 NGA TSIN WAI ROAD, KOWLOON CITY, KOWLOON",22.329065,114.190691
Restaurant licences,LAO D FANG,"G/F, BLOCK A, HANG CHIEN COURT, 92 MEI KING STREET, TOKWAWAN, KOWLOON CITY, KOWLOON",22.3175949,114.1917645
Restaurant licences,FU WAH RESTAURANT,"SHOP 10-12, G/F, TOWER A, HUNG HOM COMM.CENTRE, 37-39 MA TAU WAI RD, HUNGHOM, KOWLOON CITY, KOWLOON",22.310346,114.1880584
Restaurant licences,BILLY BOOZER,"SHOPS 20-23, G/F, 320 JUNCTION ROAD, KOWLOON CITY, KOWLOON",22.3395633,114.1808442
Restaurant licences,HOME TURF,"G/F, 6A PEACE AVENUE, KOWLOON CITY, KOWLOON",22.3191886,114.1738698
Restaurant licences,GOLDEN THAI RESTAURANT,"G/F, 24 LUNG KONG ROAD, KOWLOON CITY, KOWLOON",22.3294192,114.1905542
Restaurant licences,GOTEBORG,"G/F. & C/L., 440 MA TAU WAI RD., TOKWAWAN, KOWLOON CITY, KOWLOON",22.3196489,114.1873269
Restaurant licences,Vesta Restaurant,"G/F, 59 TAM KUNG ROAD, TOKWAWAN, KOWLOON CITY, KOWLOON",22.3224035,114.1882571
Restaurant licences,TAI FAT RESTAURANT,"G/F, 8 SOUTH WALL ROAD, KOWLOON CITY, KOWLOON",22.3285441,114.1911068
Restaurant licences,PHO THANH NHA,"G/F, 69-B2 WATERLOO ROAD, HO MAN TIN, KOWLOON",22.3184603,114.1751703
Restaurant licences,Hey Hot Pot,"G/F, 15 SUNG KIT ST, KOWLOON CITY, KOWLOON",22.3122041,114.1886506
Restaurant licences,EASTAR,"SHOP B, G/F, 31-33 HAU WONG RD, KOWLOON CITY, KOWLOON",22.3285918,114.1885657
Restaurant licences,FAME DELI,"G/F, 47 SUNG KIT ST, HUNGHOM, KOWLOON CITY, KOWLOON",22.3112885,114.1886974
Restaurant licences,Golden Orchid Thai Restaurant,"G/F, 12 LUNG KONG ROAD, KOWLOON CITY, KOWLOON",22.328582,114.190534
Restaurant licences,WONG CHUN CHUN THAI RESTAURANT,"BASEMENT, G/F & 1/F, BELSHINE CENTRE, 23 TAK KU LING ROAD, KOWLOON",22.3290985,114.1913935
Restaurant licences,THAI HOT,"G/F, 30-32 NAM KOK RD, KOWLOON CITY, KOWLOON",22.3290813,114.1900554
Restaurant licences,RC RESTAURANT,"G/F, 2B HAU WONG ROAD, KOWLOON CITY, KOWLOON",22.3278079,114.1888711
Restaurant licences,Jasmine Cuisine,"SHOP 203-205, 2/F, HOMANTIN PLAZA, HOMANTIN, KOWLOON CITY, KOWLOON",22.3162364,114.1818117
Restaurant licences,Sweet 19,"G/F, 19 HO MAN TIN STREET, KOWLOON CITY, KOWLOON",22.3159337,114.1752601
Restaurant licences,DOI MUOI,"G/F, SHUNG YAN BLDG., 20 SUNG KIT STREET, HUNG HOM, KOWLOON CITY, KOWLOON",22.3118261,114.1885342
Restaurant licences,HUNG FAT CONGEE & NOODLE,"SHOP NO. 9-10, G/F., LAI YIU ESTATE SHOPPING BLOCK, KWAI CHUNG, NEW TERRITORIES",22.353854,114.131169
Restaurant licences,TOKYO SHOKUDO,"SHOP 610, 6/F, HOPEWELL MALL, NO. 15 KENNEDY ROAD, WAN CHAI, HONG KONG",22.274832865605752,114.17089892595062
Restaurant licences,CHOI HING,"SHOP G02A, G/F, COMMERCIAL ACCOMMODATION, SAVANNAH, 3 CHI SHIN STREET, TSEUNG KWAN O, SAI KUNG, NEW TERRITORIES",22.30541843485147,114.26400903648353
Restaurant licences,AROI THAI,"SHOP NOS. 304-307, 3/F, SAU MAU PING SHOPPING CENTRE, SAU MAU PING ESTATE, KWUN TONG, KOWLOON",22.3196173418363,114.23207598529409
Restaurant licences,JIN HE CHIU CHOW,"G/F., WAI WAH COMMERCIAL BUILDING, 109-111 PORTLAND STREET, YAU MA TEI, KOWLOON",22.314869099681218,114.16940697950871
Restaurant licences,FRITES BELGIUM ON TAP,"G/F (PORTION A AND PORTION B), CROWNE PLAZA HONG KONG CAUSEWAY BAY, 8 LEIGHTON ROAD, CAUSEWAY BAY, HONG KONG",22.277006947992177,114.18266181196344
Restaurant licences,KINDLY TAILS,"SHOP NO. B1, G/F., FORTUNA BUILDING, NOS. 24-38 KAM PING STREET, NORTH POINT, HONG KONG",22.2900352,114.1973083
Restaurant licences,The Fly Place,"SHOP NOS. 2024-27, LEVEL 2, MCP CENTRAL, TKOTL 27, TSEUNG KWAN O, SAI KUNG, NEW TERRITORIES",22.32314563264154,114.25780486468659
Restaurant licences,JOLLIBEE,"SHOP NO. G4-6, G/F, FOO YU BUILDING, 275 CASTLE PEAK ROAD, TSUEN WAN, NEW TERRITORIES",22.373155854285997,114.11631647527136
Restaurant licences,THE SHACK,"UNIT NOS. G16-17 ON GROUND LEVEL OF HOUSE NOS. 16-17 AT NOS. 42A-42B MA WAN MAIN STREET, MA WAN PARK PHASE II, MA WAN, ON LOT NO. 684 IN MA WAN, TSUEN WAN, NEW TERRITORIES",22.3483834489199,114.05664471872836
Restaurant licences,CHEESE OMAKASE JEREMY EVRARD,"G/F, 28ABERDEENST., NO. 28 ABERDEEN STREET, CENTRAL, HONG KONG",22.283013159882326,114.15217071054562
Restaurant licences,"Champion Circle, Inner Circle","PORTION A OF 3/F, GRANDSTAND 1, SHA TIN RACECOURSE, SHA TIN, NEW TERRITORIES",22.40230397085872,114.20648791261945
Restaurant licences,"MEET FRESH, SPICY NOODLE","SHOP NO. 148, 1/F., CITYPLAZA, 18 TAIKOO SHING ROAD, QUARRY BAY, HONG KONG",22.28593608606452,114.21684082722932
Restaurant licences,AKA JAPANESE RESTAURANT,"SHOP A, G/F, 66-72 PATERSON STREET, FASHION WALK, CAUSEWAY BAY, HONG KONG",22.282385190978967,114.18493842004453
Restaurant licences,CHILL RESTAURANT,"SHOP G02, G/F, CHING TIN SHOPPING CENTRE, CHING TIN ESTATE, TUEN MUN, NEW TERRITORIES",22.411961296823815,113.97118507071569
Restaurant licences,Asian Lab,"SHOP NO. 22-23, G/F, SITE 12, WHAMPOA GARDEN, HUNG HOM, KOWLOON",22.305429170100584,114.19107248443335
Restaurant licences,SAPA PHO,"G/F, 190 YU CHAU STREET, SHAM SHUI PO, KOWLOON",22.329242780180802,114.1626489748379
Restaurant licences,Little Cove Espresso,"SHOP 202, LEVEL 2, ONE PACIFIC PLACE, 88 QUEENSWAY, ADMIRALTY, HONG KONG",22.277744524538335,114.16540265956102
Restaurant licences,SAIGON EXPRESS,"SHOP 15 (FRONT PORTION), G/F, SAI KUNG BUILDING, NO. 42-56 FUK MAN ROAD, SAI KUNG, NEW TERRITORIES",22.382365476818332,114.27264046380331
Restaurant licences,BUNNY CHURROS,"SHOP 17, G/F, GO PARK, 9 HOI YING ROAD, TAI PO, NEW TERRITORIES",22.429703236147894,114.26600207281992
Restaurant licences,MANNA,"SHOP, G/F, 105 WAI YIP STREET, KWUN TONG, KOWLOON",22.31576246139978,114.21555677573826
Restaurant licences,Sankinn Taiwanese Hot Pot,"SHOP NO. A102, LEVEL 1, NEW TOWN PLAZA PHASE III, SHA TIN, NEW TERRITORIES",22.380350428109733,114.18727575069619
Restaurant licences,CREO BY BRENTWOOD,"SHOP OF G/F., GF TOWER, NO. 81 LOCKHART ROAD, HONG KONG",22.27829645354773,114.17134451503065
Restaurant licences,MORE,"SHOP NO. A123, LEVEL 1, NEW TOWN PLAZA PHASE III, SHA TIN, NEW TERRITORIES",22.38035042822409,114.18727575031481
Restaurant licences,NIJUUICHI DON,"SHOP NOS. G114-G115, G/F, AMOY PLAZA OF AMOY GARDENS, PHASE 1, NO. 77 NGAU TAU KOK ROAD, KWUN TONG, KOWLOON",22.32479977261681,114.21589461044418
Restaurant licences,MAK'SNOODLE,"SHOP SPACE NO. G002, G012 & G013 ON GROUND FLOOR OF THE ARCADE, KAR SHING BUILDING, NOS 15 & 19 KAU YUK ROAD, YUEN LONG, NEW TERRITORIES",22.442835516308207,114.02733753885056
Restaurant licences,TAKGOR RESTAURANT,"SHOP NO.7, G/F, ASTER COURT, 8 HUNG TAI ROAD, HUNG SHUI KIU, YUEN LONG, NEW TERRITORIES",22.434482739280664,113.99627599551795
Restaurant licences,SAEMAEUL,"SHOP NO. 101, 1/F, MULTIFIELD PLAZA, 3-7A PRAT AVENUE, TSIM SHA TSUI, KOWLOON",22.298336373764457,114.17436167997516
Restaurant licences,MEH KEE HOTPOT,"FLAT 3-8 AND FLAT 10-12, 2/F., PROSPERITY BUILDING, NO. 61 TUNG CHOI STREET, MONG KOK, KOWLOON",22.31832260307775,114.17057843694673
Restaurant licences,MOMA,"G/F., FLOOR G, THE STAUNTON SUITES, NO. 22 STAUNTON STREET, CENTRAL, HONG KONG",22.281952,114.152666
Restaurant licences,BIG BIG MOUTH,"G/F, 182 PRATAS STREET, CHEUNG SHA WAN, KOWLOON",22.33618291233552,114.16055776221171
Restaurant licences,N+ BURGER,"SHOPS 2 & 3, G/F & COCKLOFT, GRAND FORTUNE MANSION, NO. 1 DAVIS STREET, KENNEDY TOWN, HONG KONG",22.283587841718173,114.12679316213367
Restaurant licences,HOLLYWOOD CHICKENS POT,"SHOP NO. 109, 1/F, SHUI CHUEN O PLAZA, SHUI CHUEN O ESTATE, SHA TIN, NEW TERRITORIES",22.374177334562393,114.19724382019001
Restaurant licences,NUTE,"SHOP NO. 203A, 1/F., THE REPULSE BAY, NO. 109 REPULSE BAY ROAD, REPULSE BAY, HONG KONG",22.239346809039258,114.19564295571715
Restaurant licences,J'S CUCINA,"SHOP 101, 1/F, 83 KING LAM STREET, CHEUNG SHA WAN, KOWLOON",22.339408342626022,114.14624221881796
Restaurant licences,Green Tea - APM,"SHOP NO. UC-1, UPPER CONCOURSE LEVEL, APM, MILLENNIUM CITY 5, NO. 418 KWUN TONG ROAD, KWUN TONG, KOWLOON",22.312359814599553,114.22520926963351
Restaurant licences,Tung Kee Won Ton & Beef Noodles Restaurant,"SHOP 80, G/F, FORTUNE PLAZA, 4 ON CHEE ROAD, TAI PO, NEW TERRITORIES",22.452432131461435,114.16803825585404
Restaurant licences,YAO LONG,"SHOP G & F, 1/F., MAXGRAND PLAZA, NO. 3 TAI YAU STREET, SAN PO KONG, KOWLOON",22.338232711796284,114.19911480542395
Restaurant licences,SATAY KING,"SHOP NOS. F173-181 & F183-187, 1/F, PHASE II, AMOY PLAZA, 77 NGAU TAU KOK ROAD, KOWLOON BAY, KWUN TONG, KOWLOON",22.32447022828493,114.21604477263212
Restaurant licences,"The Beat, Vantage","2/F-3/F, PAVILION STAND, HAPPY VALLEY RACECOURSE, HONG KONG",22.27337404267543,114.18001125096644
Restaurant licences,PAL,"SHOP NO. L2-57, LEVEL 2, V WALK, 28 SHAM MONG ROAD, SHAM SHUI PO, KOWLOON",22.326949702847855,114.15377975811116
Restaurant licences,CHO KUU,"SHOP 5, G/F, THE CONSONANCE, 23 JUPITER STREET, HONG KONG",22.286230727040977,114.19205395498201
Restaurant licences,MAN SHAN TAI PEI,"SHOP NOS. 187A AND 187B, LEVEL 1 , EAST POINT CITY, 8 CHUNG WA ROAD, TSEUNG KWAN O, SAI KUNG, NEW TERRITORIES",22.31667317449832,114.2656734002214
Restaurant licences,Sakana Hibi,"SHOP NO.1204, 12/F, TOWER I, THE TWINS, 12 CONCORDE ROAD, KAI TAK, KOWLOON",22.331793354561565,114.20168512786056
Restaurant licences,YUAN JI DUMPLING,"SHOP T, G/F, SAN PO KONG MANSION, 88-114 CHOI HUNG ROAD, SAN PO KONG, KOWLOON",22.336581945991796,114.19517055923282
Restaurant licences,SHIMOUMI SUSHI,"SHOP NO. 102, 1/F, THE CAMERON, NO.33 CAMERON ROAD, TSIM SHA TSUI, KOWLOON",22.2995557597881,114.17488715950337
Restaurant licences,Sam Sam,"PORTIONS A, B, C AND D OF SHOP A, G/F., NO.55 KIMBERLEY ROAD, TSIM SHA TSUI, KOWLOON",22.301019788191724,114.17458249774036
Restaurant licences,HONG KONG BBQ,"SHOP A, G/F, GINZ 8, 44 TSUN YIP STREET, KWUN TONG, KOWLOON",22.310298726321538,114.22156088649525
Restaurant licences,Water Gate Chicken Rice (West 9 Zone),"SHOP NOS. G4A & B, G/F., WEST 9 ZONE, NO. 38 CHERRY STREET, TAI KOK TSUI, KOWLOON",22.3190572880737,114.16149601496826
Restaurant licences,Pho Le,"SHOP NOS. 322 AND 323, 3/F, SHUN TAK CENTRE (PODIUM), NOS. 168-200 CONNAUGHT ROAD CENTRAL, SHEUNG WAN, HONG KONG",22.287924199465305,114.15186359862822
Restaurant licences,RICH KAT,"30/F, 38 YIU WA STREET, CAUSEWAY BAY, HONG KONG",22.277266194975994,114.1816118134927
Restaurant licences,Zen by Tera,"SHOP 109, LEVEL 1, NEW TOWN PLAZA, PHASE I, SHA TIN, NEW TERRITORIES",22.38183695402697,114.18863353680344
Restaurant licences,LUNGO,"SHOP 24A, G/F., YAN ON BUILDING, NO. 1 KWONG WA STREET, MONG KOK, KOWLOON",22.31588216006743,114.17246126890545
Restaurant licences,Asian Delights,"SHOP G29, G/F, GO PARK, 9 HOI YING ROAD, SAI SHA, TAI PO, NEW TERRITORIES",22.427307060916956,114.2651669367607
Restaurant licences,Sepoy Mess,"SHOP NO. R008, THIRD FLOOR AND ROOF, ELEMENTS, 1 AUSTIN ROAD WEST, KOWLOON",22.304663159061818,114.1619164733019
Restaurant licences,WOWDON,"SHOP NO. 1403, 14/F, TOWER 1, THE TWINS, 12 CONCORDE ROAD, KAI TAK, KOWLOON",22.332621685239335,114.20072817573629
Restaurant licences,Yakiniku Like,"SHOP NO. L2-50 & 51, LEVEL 2, V WALK, 28 SHAM MONG ROAD, SHAM SHUI PO, KOWLOON",22.326949702847855,114.15377975811116
Restaurant licences,SUGIDAMA QUARRY BAY,"SHOP NOS. SLG 3-5, SUB-LOWER GROUND FLOOR, WESTLANDS GARDENS, NOS. 1025-1037 KING'S ROAD, HONG KONG",22.285683733366948,114.21297755922208
Restaurant licences,MARIMBA,"SHOP A ON G/F, FOOK WO BUILDING, NOS. 14D, 14E & 14F ELGIN STREET & NOS. 59, 59A & 59B PEEL STREET, CENTRAL, HONG KONG",22.282515803016302,114.15240684411985
Restaurant licences,OMUSUBI,"SHOPS NO. 4A & 4B, LOWER GROUND FLOOR, THREE GARDEN ROAD, CENTRAL, HONG KONG",22.278461849140392,114.16055591428757
Restaurant licences,Brass Spoon,"SHOP B, G/F., NO. 1-3 MOON STREET, WAN CHAI, HONG KONG",22.276381152287442,114.16837917981327
Restaurant licences,OBE,"SHOP 302, 3/F., PEDDER BUILDING, 12 PEDDER STREET, CENTRAL, HONG KONG",22.28188592848224,114.1569828479472
Restaurant licences,ITAMOMO,"SHOP NO.2, G/F, CHUN TIP HOUSE, FU TIP ESTATE, TAI PO, NEW TERRITORIES",22.46270757883034,114.1764164226392
Restaurant licences,FUKU FUKU,"SHOP S01A, HEATH, BASEMENT, CHUNGKING MANSION, NOS. 36-44 NATHAN ROAD, TSIM SHA TSUI, KOWLOON",22.29647268796,114.17251241004074
Restaurant licences,Yummy Yummy,"SHOP G1, G2 & G3, G/F, COO RESIDENCE, 8 KAI FAT PATH, TUEN MUN, NEW TERRITORIES",22.39496683110767,113.97597705399559
Restaurant licences,Saravana vegetarian restaurant,"SHOP 106, 1/F, CHUNG KING MANSION, 36-44 NATHAN ROAD, TSIM SHA TSUI, KOWLOON",22.296261320278916,114.17311096422017
Restaurant licences,NAMBU / OASIS FOOD SOCIAL,"SHOP UNITS 302-303, 3/F., THE SOUTHSIDE, NO. 11 HEUNG YIP ROAD, WONG CHUK HANG, HONG KONG",22.247611117583485,114.16755378552695
Restaurant licences,FULL FULL,"SHOP A, G/F, CHUNG CHING BUILDING, 48-52 TAI PO ROAD, SHAM SHUI PO, KOWLOON",22.32804481215793,114.16732937092817
Restaurant licences,hive,"SHOP NO. 108, 1/F, ONE NORTH, 8 HONG YIP STREET, YUEN LONG, NEW TERRITORIES",22.450786874008912,114.02946030446019
Restaurant licences,food parc,"STALL NO. 3 & THE SEATING AREA OF SHOPS 1502-1503, 15/F, HOPEWELL MALL, NO. 15 KENNEDY ROAD, WAN CHAI, HONG KONG",22.27492160238756,114.17064000276153
Restaurant licences,Cupping Room,"SHOP NO. ST-01-111, PORTIONS OF L1, NEW TOWN PLAZA III, 2-8 SHATIN CENTRE STREET, SHA TIN, NEW TERRITORIES",22.38035042822409,114.18727575031481
Restaurant licences,OMBRA,"SHOP UNIT LG17, LG/F, THE SOUTHSIDE, NO. 11 HEUNG YIP ROAD, WONG CHUK HANG, HONG KONG",22.247597612880497,114.16751896662048
Restaurant licences,BHC Chicken,"1/F, PLAZA 2000, NOS. 2-4 RUSSELL STREET AND NOS. 6, 7, 8 AND 9 CANAL ROAD EAST, CAUSEWAY BAY, HONG KONG",22.278612285605213,114.18158328179274
Restaurant licences,TIN KEE DUMPLING,"SHOP UNITS S25-26, 2/F, LUK YEUNG GALLERIA, 22-26 WAI TSUEN ROAD, TSUEN WAN, NEW TERRITORIES",22.3730583185147,114.11935396127542
Restaurant licences,Green Tea - The Wai,"SHOP UNIT 321A, 3/F., THE WAI, NO. 18 CHE KUNG MIU ROAD, TAI WAI, SHA TIN, NEW TERRITORIES",22.372800199197705,114.17934405159387
Restaurant licences,SUN WING KEE RESTAURANT,"SHOP A, G/F, KINGA COURT, 207 YEE KUK STREET, SHAM SHUI PO, KOWLOON",22.32865629910435,114.15906694436319
Restaurant licences,Paradise Dynasty,"SHOP A, 16/F., LEE THEATRE PLAZA, 99 PERCIVAL STREET, CAUSEWAY BAY, HONG KONG",22.278294588302106,114.18315660345147
Restaurant licences,New Marshal King,"G/F, 119 KI LUNG STREET, MONG KOK, KOWLOON",22.326178415904703,114.16516755561342
Restaurant licences,BATARD,"SHOPS 201, 201A, 201B, 201C, 202 & 203, 2/F., PEDDER BUILDING, 12 PEDDER STREET, CENTRAL, HONG KONG",22.28188482164478,114.15697746104793
Restaurant licences,Fall in Thai Hot Pot,"SHOP L514, 5/F, AIRSIDE, 2 CONCORDE ROAD, KAI TAK, KOWLOON",22.330927697931344,114.19806326691345
Restaurant licences,Sang Roastery,"G/F., NO. 66 STAUNTON STREET, CENTRAL, HONG KONG",22.282980870828894,114.15159844676606
Restaurant licences,icegreen,"G/F, NO. 520 JAFFE ROAD, CAUSEWAY BAY, HONG KONG",22.281032382615486,114.18383405509806
Restaurant licences,PIZZAEXPRESS,"SHOP NO. G28, LEVEL G, GO PARK, 9 HOI YING ROAD, TAI PO, NEW TERRITORIES",22.427902353952724,114.26492863874638
Restaurant licences,TULSI INDIAN RESTAURANT,"SHOP 6A, 1/F, MONTEREY PLACE, O'SOUTH COAST, 23 TONG CHUN STREET, TSEUNG KWAN O, NEW TERRITORIES",22.30201090464519,114.26193936881512
Restaurant licences,KUCCINA DELLA PASTA,"SHOP NO. 1, G/F., HANG SING MANSION, 48-78 HIGH STREET, HONG KONG",22.28504889664353,114.14149220994817
Restaurant licences,The Ripples,"ROOM A, UNIT C, 3/F, KAMGA MANSION, 4-16 PINE STREET, TAI KOK TSUI, KOWLOON",22.320396235185207,114.16346205074383
Restaurant licences,Sankinn Taiwanese Hot Pot,"SHOP UNIT F10, 1/F, POPCORN, 9 TONG YIN STREET, TSEUNG KWAN O, SAI KUNG, NEW TERRITORIES",22.307949011273394,114.2597365363021
Restaurant licences,MIZI HOTPOT,"SHOP NO. G27, G/F, +WOO PHASE 2, NO. 18 TIN YAN ROAD, TIN SHUI WAI, NEW TERRITORIES",22.45697393514962,114.00477020215114
Restaurant licences,Cedilla,"12/F, THE LAMMA TOWER, NOS. 12-12A HAU FOOK STREET, TSIM SHA TSUI, KOWLOON",22.299641893615664,114.17389462013145
Restaurant licences,Seoul Recipe,"G/F. AND COCKLOFT, NO. 70 QUEEN'S ROAD EAST, WAN CHAI, HONG KONG",22.27673447456942,114.16936693193439
Restaurant licences,GING SUN HO KING OF BUN,"SHOP NOS. 39 AND 47, LEVEL 3, NORTH WING, TREND PLAZA, TMTL 282, TUEN MUN, NEW TERRITORIES",22.39314206798956,113.97572723037811
Restaurant licences,Tonkichi,"SHOP 212A, 2/F, MARITIME SQUARE 1, 31-33 TSING KING ROAD, TSING YI, NEW TERRITORIES",22.358975072060822,114.10757945053358
Restaurant licences,LO RICE,"PORTION S6 OF SHOP NO. S4-6, GROUND FLOOR OF COMMERCIAL CENTRE, BAUHINIA GARDEN, 11 TONG CHUN STREET,  TSEUNG KWAN O, NEW TERRITORIES",22.306545690811706,114.26176038453302
Restaurant licences,Hub,"SHOP 2230, LEVEL 2, SHEUNG SHUI CENTRE, 3 CHI CHEONG ROAD, SHEUNG SHUI, NEW TERRITORIES",22.50113139076507,114.12910629535473
Restaurant licences,JOM,"SHOP NO. 5, G/F, ON WING BUILDING, NOS. 79-83 WING LOK STREET, NOS. 51-59 BONHAM STRAND, SHEUNG WAN, HONG KONG",22.285830901881962,114.15212194697624
Restaurant licences,XIAO NOODLES,"SHOP NO. G02, G/F, THE SOUTHSIDE, 11 HEUNG YIP ROAD, WONG CHUK HANG, HONG KONG",22.247546185087003,114.16828260150494
Restaurant licences,THIRTY'S,"SHOP G3, G/F, C C WU BUILDING, 302-308 HENNESSY ROAD, WAN CHAI, HONG KONG",22.27780196690442,114.1778145463782
Restaurant licences,YAKINIKU TIME,"SHOP A-143, G/F, H.A.N.D.S, ON TING ESTATE, 2A TUEN MUN HEUNG SZE WUI ROAD, TUEN MUN, NEW TERRITORIES",22.387869292768652,113.97523420581174
Restaurant licences,LOK YUEN,"SHOP NO. L021B, G/F, TIN YIU PLAZA, TIN YIU ESTATE, NO. 2 TIN WU ROAD, TIN SHUI WAI, YUEN LONG, NEW TERRITORIES",22.450921001950448,114.00347835874389
Restaurant licences,Sushi Moon,"SHOP 1, G/F, HOI DEEN COURT, 279 GLOUCESTER ROAD, CAUSEWAY BAY, HONG KONG",22.281824547210196,114.18365080359808
Restaurant licences,MUSEe,"SHOP G19, G/F., THE SOUTHSIDE, 11 HEUNG YIP ROAD, WONG CHUK HANG, HONG KONG",22.24794717025583,114.1660299022439
Restaurant licences,Good Place Labs,"3/F., WOON LEE COMMERCIAL BUILDING, NOS. 7-9 AUSTIN AVENUE, TSIM SHA TSUI, KOWLOON",22.302119849189104,114.17587030062006
Restaurant licences,MIZI R.U.D.,"SHOP NO. 251-252, 2/F, CHOI MING SHOPPING CENTRE, NO. 1 CHOI MING STREET, TIU KENG LENG, SAI KUNG, NEW TERRITORIES",22.305998446058435,114.25135570019631
Restaurant licences,JOLLIBEE,"SHOP NO. G25, G/F, KAI CHUEN SHOPPING CENTRE, KAI CHUEN COURT, DIAMOND HILL, WONG TAI SIN, KOWLOON",22.339871213200528,114.19971654977061
Restaurant licences,Saizeriya Italian Restaurant,"SHOP D201, LEVEL 2, ZONE D, H.A.N.D.S, YAU OI ESTATE, YAU OI ROAD, TUEN MUN, NEW TERRITORIES",22.38814636828956,113.9743145433845
Restaurant licences,Curry House Coco Ichibanya,"SHOP NOS. G261-265, G/F, AMOY PLAZA OF AMOY GARDENS PHASE III, 77 NGAU TAU KOK ROAD, KOWLOON",22.32479977250232,114.2158946108253
Restaurant licences,MOON OF AUTUMN,"22/F, NATHAN HILL, 38 HILLWOOD ROAD, TSIM SHA TSUI, KOWLOON",22.3026335900332,114.17398826940338
Restaurant licences,GRINDIE,"SHOP A125, LEVEL 1, NEW TOWN PLAZA PHASE 3, 2-8 SHATIN CENTRE STREET, SHA TIN, NEW TERRITORIES",22.379586615993613,114.18748811659421
Restaurant licences,PEKING HOTPOT,"1/F., PETER BUILDING, 58-62 QUEEN'S ROAD CENTRAL, 13-17 STANLEY STREET, CENTRAL, HONG KONG",22.28235628577134,114.15568171239424
Restaurant licences,Time To Gold,"FLAT D1, G/F., FORTUNA BUILDING, NO. 26 KAM PING STREET, NORTH POINT, HONG KONG",22.29004338015443,114.19990505206725
Restaurant licences,EBENEEZER'S KEBAB & PIZZERIA,"SHOP RT-G02A, G/F, BUILDING 17W, NO. 17 SCIENCE PARK WEST AVENUE, HONG KONG SCIENCE PARK, PAK SHEK KOK, SHA TIN, NEW TERRITORIES",22.426785109285134,114.20870743813224
Restaurant licences,Gold Champion,"SHOP NO. 301, 3/F, MAN YEE ARCADE, MAN YEE BUILDING, NO. 68 DES VOEUX ROAD CENTRAL, CENTRAL, HONG KONG",22.28352915242049,114.15591480553518
Restaurant licences,HERE WITH YEARS,"SHOP NO. G517, KO ON MANSION, 9 TAI YUE AVENUE, TAIKOO SHING, HONG KONG",22.287227173161178,114.21408012489474
Restaurant licences,NAGE,"SHOPS NO. G501, G502 & G503, GROUND FLOOR, SQUARE MILE, 11 LI TAK STREET, TAI KOK TSUI, KOWLOON",22.320625961197806,114.16051126207425
Restaurant licences,PRIME PHO,"SHOP NO. 11, 1/F, H18 CONET, NO. 23 GRAHAM STREET, CENTRAL, HONG KONG",22.28306826353624,114.15345652522167
Restaurant licences,MR. POKE,"SHOP NO. 3, G/F., HON WAY MANSION, NO. 11 HOI KWONG STREET, QUARRY BAY, HONG KONG",22.288121504183263,114.21104027886233
Restaurant licences,Sushi Adachi,"13/F., NO. 10 WELLINGTON STREET, CENTRAL, HONG KONG",22.28083855173005,114.15604538098005
Restaurant licences,Monica,"5/F., NO. 33 WYNDHAM STREET, CENTRAL, HONG KONG",22.280429762915738,114.15511390546781
Restaurant licences,Asam Chicken Rice,"SHOP NO. UG051H, UPPER GROUND FLOOR, MCP CENTRAL, 8 YAN KING ROAD, TSEUNG KWAN O, SAI KUNG, NEW TERRITORIES",22.323240013760138,114.25819437652115
Restaurant licences,Saizeriya Italian Restaurant,"SHOP NOS.G22-23, G/F, GREEN CODE PLAZA, 1 MA SIK ROAD, FANLING, NEW TERRITORIES",22.500954145377136,114.1459803801894
Restaurant licences,Celebration Hall,"L02 MINOR PORTION, MAIN STADIUM, 39 SHING KAI ROAD, KAI TAK, KOWLOON",22.3311602,114.2048802
Restaurant licences,"Phoenix Lounge, Bauhinia Lounge, Lion Rock Lounge & Legacy Lounge","LOUNGES AND KITCHEN, L01, MAIN STADIUM, 39 SHING KAI ROAD, KAI TAK, KOWLOON",22.3311602,114.2048802
Restaurant licences,Sushi Unkei,"SHOP NO.1205, 12/F, TOWER I, THE TWINS, 12 CONCORDE ROAD, KAI TAK, KOWLOON",22.331793354561565,114.20168512786056
Restaurant licences,Fineprint,"G/F, 4 BLUE POOL ROAD, HAPPY VALLEY, HONG KONG",22.270233721734147,114.18564055428386
Restaurant licences,WING NIN NOODLE,"SHOP 1, G/F, EATON HONG KONG, 380 NATHAN ROAD, YAU MA TEI, KOWLOON",22.3080154435755,114.17154569287477
Restaurant licences,YOUNG CHICK & RICE,"SHOP NO. A109, 1/F, SHEK LEI SHOPPING CENTRE (PHASE 1), SHEK LEI ESTATE, NO.6 WAI KEK STREET, KWAI CHUNG, NEW TERRITORIES",22.36506310340974,114.13833883161297
Restaurant licences,HOPERA,"3/F., SEA BIRD HOUSE, 22-28 WYNDHAM STREET, CENTRAL, HONG KONG",22.28059648359974,114.15619781491
Restaurant licences,AOAO,"14/F, MANNING HOUSE, 48 QUEEN'S ROAD CENTRAL, CENTRAL, HONG KONG",22.281986048873986,114.15613873275689
Restaurant licences,TOP POT TAIWANESE HOT POT,"SHOP NO. 2001,  LEVEL 2 , MOSTOWN, NO. 18 ON LUK STREET, MA ON SHAN, SHA TIN, NEW TERRITORIES",22.424266856810494,114.23169645433249
Restaurant licences,Sky 208,"PORTIONS OF 58/F (EXECUTIVE CLUB LOUNGE), HOPEWELL HOTEL, 15 KENNEDY ROAD, WAN CHAI, HONG KONG",22.27465528730706,114.17101533111747
Restaurant licences,Toast Box,"SHOP UNITS F27-28, POPCORN, 9 TONG YIN STREET, TSEUNG KWAN O, SAI KUNG, NEW TERRITORIES",22.307922102888465,114.25972987268715
Restaurant licences,I'm Thirsty,"G/F., 452 CASTLE PEAK ROAD, CHEUNG SHA WAN, KOWLOON",22.34029205805065,114.15330789328306
Restaurant licences,ALWAYS JOY,"SHOP NO. 1, G/F, NAM WO HONG BUILDING, 148 WING LOK STREET, HONG KONG",22.287515126646806,114.14924170953078
Restaurant licences,Hak Po Alley,"UNIT B OF SHOP 4, G/F, TAI WING BUILDING (BLOCK C), COSMOPOLITAN ESTATE, 44-60 TAI TSUN STREET, TAI KOK TSUI, KOWLOON",22.322088560315176,114.16065970779803
Restaurant licences,KIN KAO,"SHOP A, 2/F, LINWAY COURT, 69-71 STONE NULLAH LANE, WAN CHAI, HONG KONG",22.27409961098737,114.17387227696858
Restaurant licences,TEADAYE,"SHOP L1-16A, LEVEL 1, V CITY, 83 TUEN MUN HEUNG SZE WUI ROAD, TUEN MUN, NEW TERRITORIES",22.395680414160566,113.97402600103167
Restaurant licences,JA,"G/F, 33 MAN YING STREET, JORDAN, KOWLOON",22.307176424876218,114.16576136681921
Restaurant licences,LOCANDA CANALI,"PORTION A OF SHOP G301, G/F, GATEWAY ARCADE, HARBOUR CITY, TSIM SHA TSUI, KOWLOON",22.299109894959578,114.16795769817142
Restaurant licences,Casa 218,"G/F, 218 GLOUCESTER ROAD, WAN CHAI, HONG KONG",22.280289887636425,114.17968172870599
Restaurant licences,B&B OYSTER STEAKHOUSE,"SHOP 167, 1/F., MIRA PLACE 2, 118-130 NATHAN ROAD, TSIM SHA TSUI, KOWLOON",22.300183736491626,114.17240578412637
Restaurant licences,HARA KAKO,"SHOP 2037B, LEVEL 2, ELEMENTS, 1 AUSTIN ROAD WEST, TSIM SHA TSUI, KOWLOON",22.304663159061818,114.1619164733019
Restaurant licences,HOPEWELL INN,"HOPEWELL INN ON 20/F, HOPEWELL HOTEL, 15 KENNEDY ROAD, WAN CHAI, HONG KONG",22.27506811808086,114.17067536535096
Restaurant licences,Yuanji Dumpling,"SHOP NOS. 5A AND 5B, LG/F, KWAI CHUNG FA YUEN, NO. 50-56 WO YI HOP ROAD, KWAI CHUNG, NEW TERRITORIES",22.36709607232807,114.13893666211746
Restaurant licences,Saizeriya Italian Restaurant,"SHOP NO. 355, LEVEL 2, ZONE E, TAI PO MEGA MALL, 3 PO WU LANE, TAI PO, NEW TERRITORIES",22.44997711844192,114.16887410166764
Restaurant licences,Tono Daikiya Japanese Restaurant,"1/F, KIMBERLEY 26, 26 KIMBERLEY ROAD, TSIM SHA TSUI, KOWLOON",22.300456227814784,114.17346269149417
Restaurant licences,Saizeriya Italian Restaurant,"SHOP NOS. 2057-2059 AND SHOPFRONT ADJOINING AREA,LEVEL 2, MCP CENTRAL, TSEUNG KWAN O, SAI KUNG, NEW TERRITORIES",22.323129432086514,114.25827360056391
Restaurant licences,NYX,"19/F., CIRCLE PLAZA, 499 HENNESSY ROAD, CAUSEWAY BAY, HONG KONG",22.28032029103516,114.18305414386201
Restaurant licences,Yakiniku Sho,"SHOP 3, G/F., THE CENTRIUM, 60 WYNDHAM STREET, CENTRAL, HONG KONG",22.280468580830014,114.15454631687817
Restaurant licences,Sushiro Kwun Tong,"1/F, YEN SHENG CENTRE, 64 HOI YUEN ROAD, KWUN TONG, KOWLOON",22.310777660902566,114.2254603674009
Restaurant licences,Modern Shanghai Imperial,"UNIT L1-20, LEVEL 1, FESTIVAL WALK, 80 TAT CHEE AVENUE, KOWLOON",22.337444414150436,114.17456306075933
Restaurant licences,TEADAYE,"SHOP NO. 1-130, 1/F, TSEUNG KWAN O PLAZA, NO. 1 TONG TAK STREET, TSEUNG KWAN O, SAI KUNG, NEW TERRITORIES",22.309182420136917,114.26191803760186
Restaurant licences,YAKINIKU YAMAGYU,"SHOP NO. A303, LEVEL 3, YOHO MALL II, 8 LONG YAT ROAD, YUEN LONG, NEW TERRITORIES",22.44549034993156,114.03512214784855
Restaurant licences,Vegmind,"SHOP NOS. GB18-20, G/F., SITE B, 45 TAI HONG STREET, LEI KING WAN, HONG KONG",22.28567769182403,114.22430415897196
Restaurant licences,HANG HEONG UN,"PORTION A OF SHOP B, G/F., LEI KING MANSION, NO. 93 NAM ON STREET, SHAU KEI WAN, HONG KONG",22.2793412,114.2263954
Restaurant licences,SUBWAY,"SHOP 9, 1/F, EASTMARK, 21 SHEUNG YUET ROAD, KOWLOON BAY, KOWLOON",22.322073826987513,114.21119348776583
Restaurant licences,Yung's Bistro,"SHOPS 1&2 AND THE OUTSIDE SEATING ACCOMMODATION AT SIDE, G/F, DORSET HOUSE, TAIKOO PLACE, 979 KING'S ROAD, QUARRY BAY, HONG KONG",22.2871803,114.2092164
Restaurant licences,Seoul Noodle (Mong Kok),"SHOP 6, G/F, HUNG HAY BUILDING, NO.1 FA YUEN STREET, MONGKOK, KOWLOON",22.31592796777596,114.17161648421154
Restaurant licences,TW Yummy,"SHOP 15, G/F, CONCORD BUILDING, 72 SOY STREET, MONG KOK, KOWLOON",22.316819072663566,114.17198648019078
Restaurant licences,MERCATO GOURMET,"PORTIONS OF SHOP 505 AND THE OUTSIDE SEATING ACCOMMODATION AT SHOP SIDE, 5/F., STANLEY PLAZA, MA HANG ESTATE, 23 AND 33 CARMEL ROAD, STANLEY, HONG KONG",22.219661744183234,114.20977630200206
Restaurant licences,Marugame,"SHOP A136, LEVEL 1, NEW TOWN PLAZA III, 2-8 SHATIN CENTRE STREET, SHA TIN, NEW TERRITORIES",22.38035042822409,114.18727575031475
Restaurant licences,CLOUD 39,"39/F (PORTION A) AND 39M/F (PORTION A), THE HENDERSON, 2 MURRAY ROAD, CENTRAL, HONG KONG",22.2800651,114.159655
Restaurant licences,LE CLOS,"SHOPS 101, 101A, 101B, 103, 104 & 105, 1/F., PEDDER BUILDING, 12 PEDDER STREET, CENTRAL, HONG KONG",22.282072061492016,114.15704238196565
Restaurant licences,The Steam Hut,"SHOP NO. M3-205, LEVEL 2, KAI TAK MALL 3, KAI TAK SPORTS PARK, KAI TAK, KOWLOON CITY, KOWLOON",22.322426210493127,114.19807094134111
Restaurant licences,YAOWARAT,"SHOP C, G/F, CENTRESTAGE, NO. 108 HOLLYWOOD ROAD, NOS. 1-17 BRIDGES STREET, CENTRAL, HONG KONG",22.283854497008,114.15084364424328
Restaurant licences,PH 2,"18/F & 19/F, MW PLAZA, NO. 40A KIMBERLEY ROAD, TSIM SHA TSUI, KOWLOON",22.30072316484995,114.17422442274359
Restaurant licences,GOLDEN BLOSSOMS,"SHOP NOS. 401 & 401A, LEVEL 4, K11 MUSEA, VICTORIA DOCKSIDE, 18 SALISBURY ROAD, TSIM SHA TSUI, KOWLOON",22.294318897411785,114.17483340774278
Restaurant licences,DAYVI GELATERIA,"SHOP NO. M2-115, LEVEL 1, KAI TAK MALL 2, KAI TAK SPORTS PARK, KAI TAK, KOWLOON CITY, KOWLOON",22.325746507658025,114.19580501070926
Restaurant licences,MEDORA LIZ & TORI,"G/F, 111 WELLINGTON STREET, CENTRAL, HONG KONG",22.28437010853039,114.15359796846008
Restaurant licences,SERENDIPITY CENTRAL,"2/F, THE WORKST@TION, 43 LYNDHURST TERRACE, CENTRAL, HONG KONG",22.2826499,114.1533293
Restaurant licences,Sanduo,"SHOP 303, 3/F, SAU MAU PING SHOPPING CENTRE, SAU MAU PING ESTATE, SAU MAU PING, KWUN TONG, KOWLOON",22.3196173418363,114.23207598529409
Restaurant licences,Min Gaa,"SHOP 3, G/F., V POINT, NO. 18 TANG LUNG STREET, CAUSEWAY BAY, HONG KONG",22.27909392066962,114.18167416363113
